ONEWEB-0574             
1 56063U 23043T   26003.17395220  .00000150  00000+0  33198-3 0  9994
2 56063  87.9226 276.8777 0001776  75.0827 285.0504 13.21828268136476
ONEWEB-0575             
1 56064U 23043U   26003.24319174  .00000252  00000+0  62611-3 0  9992
2 56064  87.9040 261.6121 0001831  81.4686 278.6652 13.16594250137267
ONEWEB-0576             
1 56065U 23043V   26003.22419921  .00000130  00000+0  30554-3 0  9998
2 56065  87.9046 261.6176 0001684  79.4542 280.6778 13.16594025137259
ONEWEB-0577             
1 56066U 23043W   26003.23052812  .00000177  00000+0  42905-3 0  9996
2 56066  87.9047 261.6155 0002262  80.5444 279.5943 13.16593421137288
ONEWEB-0578             
1 56067U 23043X   26003.23650076  .00000191  00000+0  43062-3 0  9994
2 56067  87.9227 276.8761 0001539  83.2030 276.9279 13.21827085136449
ONEWEB-0579             
1 56068U 23043Y   26003.30229876  .00000102  00000+0  21435-3 0  9995
2 56068  87.9228 276.8513 0001691  63.4917 296.6390 13.21823967136469
ONEWEB-0581             
1 56069U 23043Z   26003.23686174  .00000173  00000+0  41766-3 0  9993
2 56069  87.9042 261.6271 0001952  73.5553 286.5792 13.16593654137258
ONEWEB-0609             
1 56070U 23043AA  26003.29147325 -.00000036  00000+0 -12921-3 0  9992
2 56070  87.9011 292.1269 0001611  73.8635 286.2672 13.15547951134752
ONEWEB-0613             
1 56071U 23043AB  26003.28671595 -.00000075  00000+0 -23426-3 0  9998
2 56071  87.9007 292.1391 0001588  67.2261 292.9037 13.15547623134754
ONEWEB-0630             
1 56072U 23043AC  26003.28195994 -.00000057  00000+0 -18604-3 0  9995
2 56072  87.9005 292.1113 0001631  63.9106 296.2192 13.15547759134743
ONEWEB-0632             
1 56073U 23043AD  26003.27720629 -.00000013  00000+0 -67780-4 0  9996
2 56073  87.9005 292.1297 0001824  74.1683 285.9648 13.15550039134741
ONEWEB-0633             
1 56074U 23043AE  26003.27087120  .00000029  00000+0  41992-4 0  9991
2 56074  87.9009 292.0938 0001424  60.4147 299.7125 13.15548744134727
ONEWEB-0634             
1 56075U 23043AF  26003.25661164  .00000154  00000+0  37586-3 0  9998
2 56075  87.9011 292.1483 0001379  79.5035 280.6251 13.15547802134715
ONEWEB-0635             
1 56076U 23043AG  26003.25185827  .00000277  00000+0  70124-3 0  9997
2 56076  87.9005 292.1025 0001957  73.0701 287.0644 13.15548968134746
ONEWEB-0636             
1 56077U 23043AH  26003.24393631  .00000187  00000+0  46235-3 0  9997
2 56077  87.9004 292.1215 0001871  75.3334 284.8004 13.15548661134722
ONEWEB-0637             
1 56078U 23043AJ  26003.23758769  .00000135  00000+0  32482-3 0  9996
2 56078  87.9007 292.1391 0001741  84.5782 275.5547 13.15550220134741
