[{"OBJECT_NAME":"ONEWEB-0574","OBJECT_ID":"2023-043T","EPOCH":"2026-01-03T04:10:29.470080","MEAN_MOTION":13.21828268,"ECCENTRICITY":0.00017767,"INCLINATION":87.9226,"RA_OF_ASC_NODE":276.8777,"ARG_OF_PERICENTER":75.0827,"MEAN_ANOMALY":285.0504,"EPHEMERIS_TYPE":0,"CLASSIFICATION_TYPE":"U","NORAD_CAT_ID":56063,"ELEMENT_SET_NO":999,"REV_AT_EPOCH":13647,"BSTAR":0.00033198381,"MEAN_MOTION_DOT":1.5e-6,"MEAN_MOTION_DDOT":0},{"OBJECT_NAME":"ONEWEB-0575","OBJECT_ID":"2023-043U","EPOCH":"2026-01-03T05:50:11.766336","MEAN_MOTION":13.1659425,"ECCENTRICITY":0.00018314,"INCLINATION":87.904,"RA_OF_ASC_NODE":261.6121,"ARG_OF_PERICENTER":81.4686,"MEAN_ANOMALY":278.6652,"EPHEMERIS_TYPE":0,"CLASSIFICATION_TYPE":"U","NORAD_CAT_ID":56064,"ELEMENT_SET_NO":999,"REV_AT_EPOCH":13726,"BSTAR":0.00062610519,"MEAN_MOTION_DOT":2.52e-6,"MEAN_MOTION_DDOT":0},{"OBJECT_NAME":"ONEWEB-0576","OBJECT_ID":"2023-043V","EPOCH":"2026-01-03T05:22:50.811744","MEAN_MOTION":13.16594025,"ECCENTRICITY":0.00016846,"INCLINATION":87.9046,"RA_OF_ASC_NODE":261.6176,"ARG_OF_PERICENTER":79.4542,"MEAN_ANOMALY":280.6778,"EPHEMERIS_TYPE":0,"CLASSIFICATION_TYPE":"U","NORAD_CAT_ID":56065,"ELEMENT_SET_NO":999,"REV_AT_EPOCH":13725,"BSTAR":0.0003055404,"MEAN_MOTION_DOT":1.3e-6,"MEAN_MOTION_DDOT":0},{"OBJECT_NAME":"ONEWEB-0577","OBJECT_ID":"2023-043W","EPOCH":"2026-01-03T05:31:57.629568","MEAN_MOTION":13.16593421,"ECCENTRICITY":0.00022626,"INCLINATION":87.9047,"RA_OF_ASC_NODE":261.6155,"ARG_OF_PERICENTER":80.5444,"MEAN_ANOMALY":279.5943,"EPHEMERIS_TYPE":0,"CLASSIFICATION_TYPE":"U","NORAD_CAT_ID":56066,"ELEMENT_SET_NO":999,"REV_AT_EPOCH":13728,"BSTAR":0.00042905305,"MEAN_MOTION_DOT":1.77e-6,"MEAN_MOTION_DDOT":0},{"OBJECT_NAME":"ONEWEB-0578","OBJECT_ID":"2023-043X","EPOCH":"2026-01-03T05:40:33.665664","MEAN_MOTION":13.21827085,"ECCENTRICITY":0.0001539,"INCLINATION":87.9227,"RA_OF_ASC_NODE":276.8761,"ARG_OF_PERICENTER":83.203,"MEAN_ANOMALY":276.9279,"EPHEMERIS_TYPE":0,"CLASSIFICATION_TYPE":"U","NORAD_CAT_ID":56067,"ELEMENT_SET_NO":999,"REV_AT_EPOCH":13644,"BSTAR":0.0004306159,"MEAN_MOTION_DOT":1.91e-6,"MEAN_MOTION_DDOT":0},{"OBJECT_NAME":"ONEWEB-0579","OBJECT_ID":"2023-043Y","EPOCH":"2026-01-03T07:15:18.612864","MEAN_MOTION":13.21823967,"ECCENTRICITY":0.00016918,"INCLINATION":87.9228,"RA_OF_ASC_NODE":276.8513,"ARG_OF_PERICENTER":63.4917,"MEAN_ANOMALY":296.639,"EPHEMERIS_TYPE":0,"CLASSIFICATION_TYPE":"U","NORAD_CAT_ID":56068,"ELEMENT_SET_NO":999,"REV_AT_EPOCH":13646,"BSTAR":0.00021435096,"MEAN_MOTION_DOT":1.02e-6,"MEAN_MOTION_DDOT":0},{"OBJECT_NAME":"ONEWEB-0581","OBJECT_ID":"2023-043Z","EPOCH":"2026-01-03T05:41:04.854336","MEAN_MOTION":13.16593654,"ECCENTRICITY":0.00019525,"INCLINATION":87.9042,"RA_OF_ASC_NODE":261.6271,"ARG_OF_PERICENTER":73.5553,"MEAN_ANOMALY":286.5792,"EPHEMERIS_TYPE":0,"CLASSIFICATION_TYPE":"U","NORAD_CAT_ID":56069,"ELEMENT_SET_NO":999,"REV_AT_EPOCH":13725,"BSTAR":0.00041765965,"MEAN_MOTION_DOT":1.73e-6,"MEAN_MOTION_DDOT":0},{"OBJECT_NAME":"ONEWEB-0609","OBJECT_ID":"2023-043AA","EPOCH":"2026-01-03T06:59:43.288800","MEAN_MOTION":13.15547951,"ECCENTRICITY":0.00016116,"INCLINATION":87.9011,"RA_OF_ASC_NODE":292.1269,"ARG_OF_PERICENTER":73.8635,"MEAN_ANOMALY":286.2672,"EPHEMERIS_TYPE":0,"CLASSIFICATION_TYPE":"U","NORAD_CAT_ID":56070,"ELEMENT_SET_NO":999,"REV_AT_EPOCH":13475,"BSTAR":-0.00012921387,"MEAN_MOTION_DOT":-3.6e-7,"MEAN_MOTION_DDOT":0},{"OBJECT_NAME":"ONEWEB-0613","OBJECT_ID":"2023-043AB","EPOCH":"2026-01-03T06:52:52.258080","MEAN_MOTION":13.15547623,"ECCENTRICITY":0.00015884,"INCLINATION":87.9007,"RA_OF_ASC_NODE":292.1391,"ARG_OF_PERICENTER":67.2261,"MEAN_ANOMALY":292.9037,"EPHEMERIS_TYPE":0,"CLASSIFICATION_TYPE":"U","NORAD_CAT_ID":56071,"ELEMENT_SET_NO":999,"REV_AT_EPOCH":13475,"BSTAR":-0.00023426227,"MEAN_MOTION_DOT":-7.5e-7,"MEAN_MOTION_DDOT":0},{"OBJECT_NAME":"ONEWEB-0630","OBJECT_ID":"2023-043AC","EPOCH":"2026-01-03T06:46:01.338816","MEAN_MOTION":13.15547759,"ECCENTRICITY":0.00016311,"INCLINATION":87.9005,"RA_OF_ASC_NODE":292.1113,"ARG_OF_PERICENTER":63.9106,"MEAN_ANOMALY":296.2192,"EPHEMERIS_TYPE":0,"CLASSIFICATION_TYPE":"U","NORAD_CAT_ID":56072,"ELEMENT_SET_NO":999,"REV_AT_EPOCH":13474,"BSTAR":-0.00018603791,"MEAN_MOTION_DOT":-5.7e-7,"MEAN_MOTION_DDOT":0},{"OBJECT_NAME":"ONEWEB-0632","OBJECT_ID":"2023-043AD","EPOCH":"2026-01-03T06:39:10.623456","MEAN_MOTION":13.15550039,"ECCENTRICITY":0.00018246,"INCLINATION":87.9005,"RA_OF_ASC_NODE":292.1297,"ARG_OF_PERICENTER":74.1683,"MEAN_ANOMALY":285.9648,"EPHEMERIS_TYPE":0,"CLASSIFICATION_TYPE":"U","NORAD_CAT_ID":56073,"ELEMENT_SET_NO":999,"REV_AT_EPOCH":13474,"BSTAR":-6.7780054e-5,"MEAN_MOTION_DOT":-1.3e-7,"MEAN_MOTION_DDOT":0},{"OBJECT_NAME":"ONEWEB-0633","OBJECT_ID":"2023-043AE","EPOCH":"2026-01-03T06:30:03.271680","MEAN_MOTION":13.15548744,"ECCENTRICITY":0.00014244,"INCLINATION":87.9009,"RA_OF_ASC_NODE":292.0938,"ARG_OF_PERICENTER":60.4147,"MEAN_ANOMALY":299.7125,"EPHEMERIS_TYPE":0,"CLASSIFICATION_TYPE":"U","NORAD_CAT_ID":56074,"ELEMENT_SET_NO":999,"REV_AT_EPOCH":13472,"BSTAR":4.1992331e-5,"MEAN_MOTION_DOT":2.9e-7,"MEAN_MOTION_DDOT":0},{"OBJECT_NAME":"ONEWEB-0634","OBJECT_ID":"2023-043AF","EPOCH":"2026-01-03T06:09:31.245696","MEAN_MOTION":13.15547802,"ECCENTRICITY":0.00013799,"INCLINATION":87.9011,"RA_OF_ASC_NODE":292.1483,"ARG_OF_PERICENTER":79.5035,"MEAN_ANOMALY":280.6251,"EPHEMERIS_TYPE":0,"CLASSIFICATION_TYPE":"U","NORAD_CAT_ID":56075,"ELEMENT_SET_NO":999,"REV_AT_EPOCH":13471,"BSTAR":0.00037585893,"MEAN_MOTION_DOT":1.54e-6,"MEAN_MOTION_DDOT":0},{"OBJECT_NAME":"ONEWEB-0635","OBJECT_ID":"2023-043AG","EPOCH":"2026-01-03T06:02:40.554528","MEAN_MOTION":13.15548968,"ECCENTRICITY":0.0001957,"INCLINATION":87.9005,"RA_OF_ASC_NODE":292.1025,"ARG_OF_PERICENTER":73.0701,"MEAN_ANOMALY":287.0644,"EPHEMERIS_TYPE":0,"CLASSIFICATION_TYPE":"U","NORAD_CAT_ID":56076,"ELEMENT_SET_NO":999,"REV_AT_EPOCH":13474,"BSTAR":0.00070123849,"MEAN_MOTION_DOT":2.77e-6,"MEAN_MOTION_DDOT":0},{"OBJECT_NAME":"ONEWEB-0636","OBJECT_ID":"2023-043AH","EPOCH":"2026-01-03T05:51:16.097184","MEAN_MOTION":13.15548661,"ECCENTRICITY":0.00018712,"INCLINATION":87.9004,"RA_OF_ASC_NODE":292.1215,"ARG_OF_PERICENTER":75.3334,"MEAN_ANOMALY":284.8004,"EPHEMERIS_TYPE":0,"CLASSIFICATION_TYPE":"U","NORAD_CAT_ID":56077,"ELEMENT_SET_NO":999,"REV_AT_EPOCH":13472,"BSTAR":0.00046234653,"MEAN_MOTION_DOT":1.87e-6,"MEAN_MOTION_DDOT":0},{"OBJECT_NAME":"ONEWEB-0637","OBJECT_ID":"2023-043AJ","EPOCH":"2026-01-03T05:42:07.576416","MEAN_MOTION":13.1555022,"ECCENTRICITY":0.00017413,"INCLINATION":87.9007,"RA_OF_ASC_NODE":292.1391,"ARG_OF_PERICENTER":84.5782,"MEAN_ANOMALY":275.5547,"EPHEMERIS_TYPE":0,"CLASSIFICATION_TYPE":"U","NORAD_CAT_ID":56078,"ELEMENT_SET_NO":999,"REV_AT_EPOCH":13474,"BSTAR":0.00032481737,"MEAN_MOTION_DOT":1.35e-6,"MEAN_MOTION_DDOT":0}]
